start=new Date('2021-10-26T00:00:00.000Z').valueOf();
sats=[{"CENTER_NAME":"EARTH","OBJECT_ID":"2021-038AV","RA_OF_ASC_NODE":"307.3897","EPOCH":"2021-10-25T10:51:14.956416","ECCENTRICITY":"0.00010400","PERIOD":"95.593","MEAN_MOTION":"15.06393413","BSTAR":"0.00007259200000","GP_ID":"188150845","REV_AT_EPOCH":"2730","OBJECT_TYPE":"PAYLOAD","NORAD_CAT_ID":"48396","MEAN_ANOMALY":"276.5369","TLE_LINE1":"1 48396U 21038AV  21298.45225644  .00000800  00000-0  72592-4 0  9995","INCLINATION":"53.0547","LAUNCH_DATE":"2021-05-04","TIME_SYSTEM":"UTC","MEAN_MOTION_DDOT":"0.0000000000000","CLASSIFICATION_TYPE":"U","PERIAPSIS":"546.514","REF_FRAME":"TEME","DECAY_DATE":null,"SITE":"AFETR","APOAPSIS":"547.954","EPHEMERIS_TYPE":"0","FILE":"3183663","SEMIMAJOR_AXIS":"6925.369","OBJECT_NAME":"STARLINK-2575","COUNTRY_CODE":"US","TLE_LINE2":"2 48396  53.0547 307.3897 0001040  83.5738 276.5369 15.06393413 27307","ARG_OF_PERICENTER":"83.5738","RCS_SIZE":"LARGE","MEAN_ELEMENT_THEORY":"SGP4","MEAN_MOTION_DOT":"0.00000800","ELEMENT_SET_NO":"999"},{"EPOCH":"2021-10-25T05:59:20.932512","RA_OF_ASC_NODE":"308.3119","OBJECT_ID":"2021-038AW","CENTER_NAME":"EARTH","MEAN_MOTION_DDOT":"0.0000000000000","LAUNCH_DATE":"2021-05-04","TIME_SYSTEM":"UTC","CLASSIFICATION_TYPE":"U","PERIAPSIS":"546.382","REF_FRAME":"TEME","OBJECT_TYPE":"PAYLOAD","MEAN_ANOMALY":"275.3046","NORAD_CAT_ID":"48397","TLE_LINE1":"1 48397U 21038AW  21298.24954783  .00001914  00000-0  14733-3 0  9995","INCLINATION":"53.0568","BSTAR":"0.00014733000000","GP_ID":"188145614","REV_AT_EPOCH":"2790","ECCENTRICITY":"0.00011600","PERIOD":"95.592","MEAN_MOTION":"15.06409148","SEMIMAJOR_AXIS":"6925.321","OBJECT_NAME":"STARLINK-2590","COUNTRY_CODE":"US","TLE_LINE2":"2 48397  53.0568 308.3119 0001160  84.8075 275.3046 15.06409148 27908","FILE":"3183453","EPHEMERIS_TYPE":"0","APOAPSIS":"547.989","DECAY_DATE":null,"SITE":"AFETR","ELEMENT_SET_NO":"999","ARG_OF_PERICENTER":"84.8075","RCS_SIZE":"LARGE","MEAN_MOTION_DOT":"0.00001914","MEAN_ELEMENT_THEORY":"SGP4"},{"ARG_OF_PERICENTER":"85.0495","MEAN_MOTION_DOT":"0.00002977","RCS_SIZE":"LARGE","MEAN_ELEMENT_THEORY":"SGP4","ELEMENT_SET_NO":"999","FILE":"3183320","SEMIMAJOR_AXIS":"6925.312","OBJECT_NAME":"STARLINK-2588","COUNTRY_CODE":"US","TLE_LINE2":"2 48398  53.0550 308.0270 0000941  85.0495 275.0601 15.06411799 27280","DECAY_DATE":null,"SITE":"AFETR","APOAPSIS":"547.829","EPHEMERIS_TYPE":"0","NORAD_CAT_ID":"48398","OBJECT_TYPE":"PAYLOAD","MEAN_ANOMALY":"275.0601","TLE_LINE1":"1 48398U 21038AX  21298.31220348  .00002977  00000-0  21859-3 0  9994","INCLINATION":"53.0550","MEAN_MOTION_DDOT":"0.0000000000000","LAUNCH_DATE":"2021-05-04","TIME_SYSTEM":"UTC","CLASSIFICATION_TYPE":"U","PERIAPSIS":"546.526","REF_FRAME":"TEME","ECCENTRICITY":"0.00009410","MEAN_MOTION":"15.06411799","PERIOD":"95.591","BSTAR":"0.00021859000000","GP_ID":"188119505","REV_AT_EPOCH":"2728","EPOCH":"2021-10-25T07:29:34.380672","CENTER_NAME":"EARTH","OBJECT_ID":"2021-038AX","RA_OF_ASC_NODE":"308.0270"},{"RA_OF_ASC_NODE":"308.0501","OBJECT_ID":"2021-038AY","CENTER_NAME":"EARTH","EPOCH":"2021-10-25T07:24:15.552576","REV_AT_EPOCH":"2728","GP_ID":"188121553","BSTAR":"0.00000105210000","PERIOD":"95.592","MEAN_MOTION":"15.06399040","ECCENTRICITY":"0.00009400","REF_FRAME":"TEME","PERIAPSIS":"546.566","CLASSIFICATION_TYPE":"U","LAUNCH_DATE":"2021-05-04","MEAN_MOTION_DDOT":"0.0000000000000","TIME_SYSTEM":"UTC","INCLINATION":"53.0568","TLE_LINE1":"1 48399U 21038AY  21298.30851334 -.00000266  00000-0  10521-5 0  9995","OBJECT_TYPE":"PAYLOAD","NORAD_CAT_ID":"48399","MEAN_ANOMALY":"275.2692","EPHEMERIS_TYPE":"0","APOAPSIS":"547.867","SITE":"AFETR","DECAY_DATE":null,"TLE_LINE2":"2 48399  53.0568 308.0501 0000940  84.8405 275.2692 15.06399040 27280","COUNTRY_CODE":"US","OBJECT_NAME":"STARLINK-2587","SEMIMAJOR_AXIS":"6925.352","FILE":"3183398","ELEMENT_SET_NO":"999","RCS_SIZE":"LARGE","MEAN_MOTION_DOT":"-0.00000266","MEAN_ELEMENT_THEORY":"SGP4","ARG_OF_PERICENTER":"84.8405"},{"MEAN_MOTION_DOT":"-0.00000400","RCS_SIZE":"LARGE","MEAN_ELEMENT_THEORY":"SGP4","ARG_OF_PERICENTER":"93.7240","ELEMENT_SET_NO":"999","SITE":"AFETR","DECAY_DATE":null,"EPHEMERIS_TYPE":"0","APOAPSIS":"548.064","FILE":"3183453","COUNTRY_CODE":"US","TLE_LINE2":"2 48400  53.0564 308.3596 0001218  93.7240 266.3888 15.06397585 26684","SEMIMAJOR_AXIS":"6925.356","OBJECT_NAME":"STARLINK-2576","PERIOD":"95.592","MEAN_MOTION":"15.06397585","ECCENTRICITY":"0.00012180","REV_AT_EPOCH":"2668","BSTAR":"-0.00000794910000","GP_ID":"188145391","TLE_LINE1":"1 48400U 21038AZ  21298.23848181 -.00000400  00000-0 -79491-5 0  9998","INCLINATION":"53.0564","MEAN_ANOMALY":"266.3888","OBJECT_TYPE":"PAYLOAD","NORAD_CAT_ID":"48400","PERIAPSIS":"546.377","REF_FRAME":"TEME","TIME_SYSTEM":"UTC","LAUNCH_DATE":"2021-05-04","MEAN_MOTION_DDOT":"0.0000000000000","CLASSIFICATION_TYPE":"U","CENTER_NAME":"EARTH","OBJECT_ID":"2021-038AZ","RA_OF_ASC_NODE":"308.3596","EPOCH":"2021-10-25T05:43:24.828384"},{"ARG_OF_PERICENTER":"80.8234","MEAN_ELEMENT_THEORY":"SGP4","RCS_SIZE":"LARGE","MEAN_MOTION_DOT":"0.00001843","ELEMENT_SET_NO":"999","FILE":"3183665","OBJECT_NAME":"STARLINK-2571","SEMIMAJOR_AXIS":"6925.348","TLE_LINE2":"2 48401  53.0555 307.6061 0001063  80.8234 279.2875 15.06400164 27297","COUNTRY_CODE":"US","DECAY_DATE":null,"SITE":"AFETR","EPHEMERIS_TYPE":"0","APOAPSIS":"547.949","NORAD_CAT_ID":"48401","OBJECT_TYPE":"PAYLOAD","MEAN_ANOMALY":"279.2875","INCLINATION":"53.0555","TLE_LINE1":"1 48401U 21038BA  21298.40709647  .00001843  00000-0  14256-3 0  9997","CLASSIFICATION_TYPE":"U","MEAN_MOTION_DDOT":"0.0000000000000","LAUNCH_DATE":"2021-05-04","TIME_SYSTEM":"UTC","REF_FRAME":"TEME","PERIAPSIS":"546.477","ECCENTRICITY":"0.00010630","PERIOD":"95.592","MEAN_MOTION":"15.06400164","GP_ID":"188150888","BSTAR":"0.00014256000000","REV_AT_EPOCH":"2729","EPOCH":"2021-10-25T09:46:13.135008","CENTER_NAME":"EARTH","OBJECT_ID":"2021-038BA","RA_OF_ASC_NODE":"307.6061"},{"ARG_OF_PERICENTER":"81.8544","RCS_SIZE":"LARGE","MEAN_ELEMENT_THEORY":"SGP4","MEAN_MOTION_DOT":"-0.00000566","ELEMENT_SET_NO":"999","FILE":"3183453","SEMIMAJOR_AXIS":"6925.359","OBJECT_NAME":"STARLINK-2560","COUNTRY_CODE":"US","TLE_LINE2":"2 48402  53.0567 308.3798 0000957  81.8544 278.2553 15.06396682 26685","DECAY_DATE":null,"SITE":"AFETR","EPHEMERIS_TYPE":"0","APOAPSIS":"547.886","MEAN_ANOMALY":"278.2553","OBJECT_TYPE":"PAYLOAD","NORAD_CAT_ID":"48402","TLE_LINE1":"1 48402U 21038BB  21298.23479963 -.00000566  00000-0 -19090-4 0  9999","INCLINATION":"53.0567","LAUNCH_DATE":"2021-05-04","TIME_SYSTEM":"UTC","MEAN_MOTION_DDOT":"0.0000000000000","CLASSIFICATION_TYPE":"U","PERIAPSIS":"546.561","REF_FRAME":"TEME","ECCENTRICITY":"0.00009570","PERIOD":"95.592","MEAN_MOTION":"15.06396682","BSTAR":"-0.00001909000000","GP_ID":"188145837","REV_AT_EPOCH":"2668","EPOCH":"2021-10-25T05:38:06.688032","CENTER_NAME":"EARTH","RA_OF_ASC_NODE":"308.3798","OBJECT_ID":"2021-038BB"},{"CENTER_NAME":"EARTH","OBJECT_ID":"2021-038BC","RA_OF_ASC_NODE":"308.0893","EPOCH":"2021-10-25T07:08:20.567328","MEAN_MOTION":"15.06406705","PERIOD":"95.592","ECCENTRICITY":"0.00010470","REV_AT_EPOCH":"2669","GP_ID":"188145503","BSTAR":"0.00011920000000","INCLINATION":"53.0553","TLE_LINE1":"1 48403U 21038BC  21298.29746027  .00001495  00000-0  11920-3 0  9997","MEAN_ANOMALY":"272.9123","OBJECT_TYPE":"PAYLOAD","NORAD_CAT_ID":"48403","REF_FRAME":"TEME","PERIAPSIS":"546.468","CLASSIFICATION_TYPE":"U","TIME_SYSTEM":"UTC","LAUNCH_DATE":"2021-05-04","MEAN_MOTION_DDOT":"0.0000000000000","SITE":"AFETR","DECAY_DATE":null,"APOAPSIS":"547.918","EPHEMERIS_TYPE":"0","FILE":"3183453","TLE_LINE2":"2 48403  53.0553 308.0893 0001047  87.1986 272.9123 15.06406705 26697","COUNTRY_CODE":"US","OBJECT_NAME":"STARLINK-2561","SEMIMAJOR_AXIS":"6925.328","RCS_SIZE":"LARGE","MEAN_MOTION_DOT":"0.00001495","MEAN_ELEMENT_THEORY":"SGP4","ARG_OF_PERICENTER":"87.1986","ELEMENT_SET_NO":"999"},{"OBJECT_TYPE":"PAYLOAD","MEAN_ANOMALY":"271.2453","NORAD_CAT_ID":"48404","TLE_LINE1":"1 48404U 21038BD  21298.29377500  .00001022  00000-0  87476-4 0  9990","INCLINATION":"53.0568","TIME_SYSTEM":"UTC","LAUNCH_DATE":"2021-05-04","MEAN_MOTION_DDOT":"0.0000000000000","CLASSIFICATION_TYPE":"U","PERIAPSIS":"546.548","REF_FRAME":"TEME","ECCENTRICITY":"0.00009360","PERIOD":"95.592","MEAN_MOTION":"15.06405801","BSTAR":"0.00008747600000","GP_ID":"188145726","REV_AT_EPOCH":"2669","EPOCH":"2021-10-25T07:03:02.160000","CENTER_NAME":"EARTH","OBJECT_ID":"2021-038BD","RA_OF_ASC_NODE":"308.1155","ARG_OF_PERICENTER":"88.8644","MEAN_MOTION_DOT":"0.00001022","RCS_SIZE":"LARGE","MEAN_ELEMENT_THEORY":"SGP4","ELEMENT_SET_NO":"999","FILE":"3183453","SEMIMAJOR_AXIS":"6925.331","OBJECT_NAME":"STARLINK-2593","COUNTRY_CODE":"US","TLE_LINE2":"2 48404  53.0568 308.1155 0000936  88.8644 271.2453 15.06405801 26695","DECAY_DATE":null,"SITE":"AFETR","EPHEMERIS_TYPE":"0","APOAPSIS":"547.844"},{"ECCENTRICITY":"0.00010010","PERIOD":"95.592","MEAN_MOTION":"15.06395654","BSTAR":"0.00010620000000","GP_ID":"188145615","REV_AT_EPOCH":"2669","MEAN_ANOMALY":"280.1847","OBJECT_TYPE":"PAYLOAD","NORAD_CAT_ID":"48405","TLE_LINE1":"1 48405U 21038BE  21298.29007887  .00001301  00000-0  10620-3 0  9995","INCLINATION":"53.0565","LAUNCH_DATE":"2021-05-04","MEAN_MOTION_DDOT":"0.0000000000000","TIME_SYSTEM":"UTC","CLASSIFICATION_TYPE":"U","PERIAPSIS":"546.534","REF_FRAME":"TEME","CENTER_NAME":"EARTH","RA_OF_ASC_NODE":"308.1302","OBJECT_ID":"2021-038BE","EPOCH":"2021-10-25T06:57:42.814368","ARG_OF_PERICENTER":"79.9255","RCS_SIZE":"LARGE","MEAN_MOTION_DOT":"0.00001301","MEAN_ELEMENT_THEORY":"SGP4","ELEMENT_SET_NO":"999","DECAY_DATE":null,"SITE":"AFETR","EPHEMERIS_TYPE":"0","APOAPSIS":"547.920","FILE":"3183453","SEMIMAJOR_AXIS":"6925.362","OBJECT_NAME":"STARLINK-2570","COUNTRY_CODE":"US","TLE_LINE2":"2 48405  53.0565 308.1302 0001001  79.9255 280.1847 15.06395654 26690"}];
